NORAD_CAT_ID,OBJECT_NAME,OBJECT_TYPE,EPOCH,MEAN_MOTION,ECCENTRICITY,INCLINATION,RA_OF_ASC_NODE,ARG_OF_PERICENTER,MEAN_ANOMALY,BSTAR,MEAN_MOTION_DOT,MEAN_MOTION_DDOT,TLE_LINE0,TLE_LINE1,TLE_LINE2,SEMIMAJOR_AXIS,PERIOD,APOGEE,PERIGEE,DECAYED
56792.0,STARLINK-6046,PAYLOAD,2024-04-26 18:49:32,14.98341342,0.0003032,70.0015,263.9308,270.4164,89.6647,0.00051298,6.035e-05,0.0,0 STARLINK-6046,1 56792U 23078AB  24117.78440311  .00006035  00000-0  51298-3 0  9994,2 56792  70.0015 263.9308 0003032 270.4164  89.6647 14.98341342 50539,6950.158,96.106,574.13,569.916,0.0
56792.0,STARLINK-6046,PAYLOAD,2024-04-27 12:27:01,14.98337431,0.0003229,70.0016,262.0811,278.5313,81.548,0.0002313,2.668e-05,0.0,0 STARLINK-6046,1 56792U 23078AB  24118.51876276  .00002668  00000-0  23130-3 0  9991,2 56792  70.0016 262.0811 0003229 278.5313  81.5480 14.98337431 50903,6950.17,96.107,574.279,569.791,0.0
56792.0,STARLINK-6046,PAYLOAD,2024-04-27 14:03:09,14.9833644,0.0003142,70.0016,261.9127,276.4857,83.5944,0.00020803,2.39e-05,0.0,0 STARLINK-6046,1 56792U 23078AB  24118.58552285  .00002390  00000-0  20803-3 0  9995,2 56792  70.0016 261.9127 0003142 276.4857  83.5944 14.98336440 50653,6950.173,96.107,574.222,569.854,0.0
56792.0,STARLINK-6046,PAYLOAD,2024-04-27 18:51:33,14.98338866,0.0002975,70.0019,261.4069,274.0303,86.0516,0.00020127,2.31e-05,0.0,0 STARLINK-6046,1 56792U 23078AB  24118.78580010  .00002310  00000-0  20127-3 0  9995,2 56792  70.0019 261.4069 0002975 274.0303  86.0516 14.98338866 50689,6950.165,96.106,574.098,569.963,0.0
56792.0,STARLINK-6046,PAYLOAD,2024-04-28 12:29:02,14.98327302,0.000314,69.9998,259.5566,274.4506,85.6295,-8.2753e-05,-1.08e-05,0.0,0 STARLINK-6046,1 56792U 23078AB  24119.52017136 -.00001080  00000-0 -82753-4 0  9991,2 56792  69.9998 259.5566 0003140 274.4506  85.6295 14.98327302 51050,6950.201,96.107,574.249,569.884,0.0
56792.0,STARLINK-6046,PAYLOAD,2024-04-28 14:05:10,14.98325545,0.0003008,70.0,259.3866,270.1506,89.9309,-7.8475e-05,-1.029e-05,0.0,0 STARLINK-6046,1 56792U 23078AB  24119.58693212 -.00001029  00000-0 -78475-4 0  9991,2 56792  70.0000 259.3866 0003008 270.1506  89.9309 14.98325545 50806,6950.207,96.107,574.162,569.981,0.0
56792.0,STARLINK-6046,PAYLOAD,2024-04-28 18:53:35,14.98327548,0.0003312,69.9991,258.8815,275.303,84.7751,-0.00011311,-1.442e-05,0.0,0 STARLINK-6046,1 56792U 23078AB  24119.78721159 -.00001442  00000-0 -11311-3 0  9999,2 56792  69.9991 258.8815 0003312 275.3030  84.7751 14.98327548 50839,6950.2,96.107,574.367,569.764,0.0
56792.0,STARLINK-6046,PAYLOAD,2024-04-29 12:31:03,14.98328747,0.0003251,69.9996,257.0298,274.8163,85.2624,6.6719e-05,7.03e-06,0.0,0 STARLINK-6046,1 56792U 23078AB  24120.52156811  .00000703  00000-0  66719-4 0  9990,2 56792  69.9996 257.0298 0003251 274.8163  85.2624 14.98328747 51202,6950.197,96.107,574.321,569.802,0.0
56792.0,STARLINK-6046,PAYLOAD,2024-04-29 14:07:11,14.98329276,0.0003267,69.9997,256.8611,274.7677,85.3109,8.0545e-05,8.68e-06,0.0,0 STARLINK-6046,1 56792U 23078AB  24120.58832752  .00000868  00000-0  80545-4 0  9996,2 56792  69.9997 256.8611 0003267 274.7677  85.3109 14.98329276 50953,6950.195,96.107,574.331,569.79,0.0
56792.0,STARLINK-6046,PAYLOAD,2024-04-29 18:55:35,14.98337715,0.0003194,69.9998,256.3557,273.9602,86.1192,0.00010344,1.142e-05,0.0,0 STARLINK-6046,1 56792U 23078AB  24120.78860161  .00001142  00000-0  10344-3 0  9998,2 56792  69.9998 256.3557 0003194 273.9602  86.1192 14.98337715 51247,6950.169,96.107,574.254,569.814,0.0
56792.0,STARLINK-6046,PAYLOAD,2024-04-30 10:56:56,14.98327251,0.0003187,69.9999,254.6727,272.8697,87.2097,0.00023855,2.754e-05,0.0,0 STARLINK-6046,1 56792U 23078AB  24121.45620698  .00002754  00000-0  23855-3 0  9993,2 56792  69.9999 254.6727 0003187 272.8697  87.2097 14.98327251 51343,6950.201,96.107,574.281,569.851,0.0
56792.0,STARLINK-6046,PAYLOAD,2024-04-30 14:09:12,14.98328794,0.000319,70.0,254.3361,272.7861,87.2933,0.00026379,3.056e-05,0.0,0 STARLINK-6046,1 56792U 23078AB  24121.58972732  .00003056  00000-0  26379-3 0  9996,2 56792  70.0000 254.3361 0003190 272.7861  87.2933 14.98328794 51102,6950.197,96.107,574.279,569.845,0.0
56792.0,STARLINK-6046,PAYLOAD,2024-04-30 18:57:36,14.98334087,0.000317,70.0001,253.8312,272.6294,87.4502,0.00034427,4.018e-05,0.0,0 STARLINK-6046,1 56792U 23078AB  24121.79000509  .00004018  00000-0  34427-3 0  9995,2 56792  70.0001 253.8312 0003170 272.6294  87.4502 14.98334087 51139,6950.18,96.107,574.248,569.842,0.0
56792.0,STARLINK-6046,PAYLOAD,2024-05-01 18:59:37,14.9833745,0.0003104,70.0015,251.3065,273.7242,86.3562,8.0538e-05,8.68e-06,0.0,0 STARLINK-6046,1 56792U 23078AB  24122.79140084  .00000868  00000-0  80538-4 0  9993,2 56792  70.0015 251.3065 0003104 273.7242  86.3562 14.98337450 51540,6950.17,96.107,574.192,569.878,0.0
56792.0,STARLINK-6046,PAYLOAD,2024-05-02 12:37:06,14.98329639,0.000311,70.0004,249.4551,272.3435,87.7368,-1.8252e-05,-3.11e-06,0.0,0 STARLINK-6046,1 56792U 23078AB  24123.52576700 -.00000311  00000-0 -18252-4 0  9992,2 56792  70.0004 249.4551 0003110 272.3435  87.7368 14.98329639 51653,6950.194,96.107,574.221,569.897,0.0
56792.0,STARLINK-6046,PAYLOAD,2024-05-02 14:13:13,14.98334504,0.0003102,70.0004,249.287,271.5605,88.5199,2.0292e-05,1.49e-06,0.0,0 STARLINK-6046,1 56792U 23078AB  24123.59252256  .00000149  00000-0  20292-4 0  9990,2 56792  70.0004 249.2870 0003102 271.5605  88.5199 14.98334504 51407,6950.179,96.107,574.2,569.888,0.0
56792.0,STARLINK-6046,PAYLOAD,2024-05-03 01:26:10,14.98336684,0.0003041,70.0005,248.1092,269.0558,91.0252,6.0417e-05,6.28e-06,0.0,0 STARLINK-6046,1 56792U 23078AB  24124.05983874  .00000628  00000-0  60417-4 0  9994,2 56792  70.0005 248.1092 0003041 269.0558  91.0252 14.98336684 51739,6950.172,96.107,574.151,569.924,0.0
56792.0,STARLINK-6046,PAYLOAD,2024-05-03 14:15:13,14.98340973,0.0003046,70.0001,246.7621,266.2796,93.8015,0.00022205,2.558e-05,0.0,0 STARLINK-6046,1 56792U 23078AB  24124.59391031  .00002558  00000-0  22205-3 0  9997,2 56792  70.0001 246.7621 0003046 266.2796  93.8015 14.98340973 51558,6950.159,96.106,574.141,569.907,0.0
56792.0,STARLINK-6046,PAYLOAD,2024-05-03 17:27:29,14.98341631,0.0003053,70.0001,246.4255,266.1863,93.8947,0.00023691,2.736e-05,0.0,0 STARLINK-6046,1 56792U 23078AB  24124.72742978  .00002736  00000-0  23691-3 0  9990,2 56792  70.0001 246.4255 0003053 266.1863  93.8947 14.98341631 51578,6950.157,96.106,574.144,569.9,0.0
56792.0,STARLINK-6046,PAYLOAD,2024-05-04 01:28:10,14.98334243,0.0003143,69.9999,245.5842,268.6347,91.4452,0.00013368,1.503e-05,0.0,0 STARLINK-6046,1 56792U 23078AB  24125.06123457  .00001503  00000-0  13368-3 0  9994,2 56792  69.9999 245.5842 0003143 268.6347  91.4452 14.98334243 51887,6950.18,96.107,574.229,569.86,0.0
56792.0,STARLINK-6046,PAYLOAD,2024-05-04 12:41:08,14.98318095,0.0003109,70.0009,244.4053,268.4153,91.665,-0.00014267,-1.794e-05,0.0,0 STARLINK-6046,1 56792U 23078AB  24125.52856576 -.00001794  00000-0 -14267-3 0  9993,2 56792  70.0009 244.4053 0003109 268.4153  91.6650 14.98318095 51956,6950.23,96.108,574.256,569.934,0.0
56792.0,STARLINK-6046,PAYLOAD,2024-05-05 01:30:12,14.98328909,0.00031,70.0011,243.0585,269.329,90.7513,5.6038e-05,5.76e-06,0.0,0 STARLINK-6046,1 56792U 23078AB  24126.06264178  .00000576  00000-0  56038-4 0  9992,2 56792  70.0011 243.0585 0003100 269.3290  90.7513 14.98328909 52030,6950.196,96.107,574.216,569.907,0.0
56792.0,STARLINK-6046,PAYLOAD,2024-05-05 14:19:16,14.98340001,0.0003156,70.0015,241.7116,270.5608,89.5189,0.0012392,0.00014728,0.0,0 STARLINK-6046,1 56792U 23078AB  24126.59672297  .00014728  00000-0  12392-2 0  9992,2 56792  70.0015 241.7116 0003156 270.5608  89.5189 14.98340001 51858,6950.162,96.106,574.22,569.833,0.0
56792.0,STARLINK-6046,PAYLOAD,2024-05-05 17:31:32,14.98345559,0.000317,70.0015,241.375,270.7712,89.3083,0.0013582,0.00016157,0.0,0 STARLINK-6046,1 56792U 23078AB  24126.73024191  .00016157  00000-0  13582-2 0  9992,2 56792  70.0015 241.3750 0003170 270.7712  89.3083 14.98345559 52138,6950.145,96.106,574.213,569.807,0.0
56792.0,STARLINK-6046,PAYLOAD,2024-05-06 01:32:13,14.98344213,0.0003126,70.0018,240.5327,270.2544,89.8257,0.0009021,0.00010691,0.0,0 STARLINK-6046,1 56792U 23078AB  24127.06404053  .00010691  00000-0  90210-3 0  9999,2 56792  70.0018 240.5327 0003126 270.2544  89.8257 14.98344213 52180,6950.149,96.106,574.187,569.841,0.0
56792.0,STARLINK-6046,PAYLOAD,2024-05-06 14:21:17,14.9835189,0.0003126,70.0017,239.187,271.9171,88.163,0.00083425,9.881e-05,0.0,0 STARLINK-6046,1 56792U 23078AB  24127.59811572  .00009881  00000-0  83425-3 0  9994,2 56792  70.0017 239.1870 0003126 271.9171  88.1630 14.98351890 52007,6950.125,96.106,574.163,569.818,0.0
56792.0,STARLINK-6046,PAYLOAD,2024-05-06 17:33:33,14.9835561,0.0003136,70.0018,238.8504,272.3139,87.7661,0.00090982,0.00010787,0.0,0 STARLINK-6046,1 56792U 23078AB  24127.73163367  .00010787  00000-0  90982-3 0  9995,2 56792  70.0018 238.8504 0003136 272.3139  87.7661 14.98355610 52023,6950.114,96.105,574.158,569.799,0.0
56792.0,STARLINK-6046,PAYLOAD,2024-05-07 11:11:02,14.98332349,0.0002796,70.002,236.9991,275.1177,84.9662,-4.6652e-06,-1.49e-06,0.0,0 STARLINK-6046,1 56792U 23078AB  24128.46599904 -.00000149  00000-0 -46652-5 0  9996,2 56792  70.0020 236.9991 0002796 275.1177  84.9662 14.98332349 52393,6950.186,96.107,573.994,570.107,0.0
56792.0,STARLINK-6046,PAYLOAD,2024-05-07 14:23:18,14.98331167,0.0002771,70.0021,236.6624,276.3699,83.7144,-1.935e-05,-3.24e-06,0.0,0 STARLINK-6046,1 56792U 23078AB  24128.59951926 -.00000324  00000-0 -19350-4 0  9995,2 56792  70.0021 236.6624 0002771 276.3699  83.7144 14.98331167 52152,6950.189,96.107,573.98,570.128,0.0
56792.0,STARLINK-6046,PAYLOAD,2024-05-07 17:35:34,14.98332583,0.0002753,70.0009,236.3261,274.887,85.1975,7.2357e-05,7.71e-06,0.0,0 STARLINK-6046,1 56792U 23078AB  24128.73304043  .00000771  00000-0  72357-4 0  9993,2 56792  70.0009 236.3261 0002753 274.8870  85.1975 14.98332583 52179,6950.185,96.107,573.963,570.137,0.0
